ONEWEB-0098             
1 45442U 20020U   24286.68199079  .00000643  00000+0  17776-2 0  9996
2 45442  87.8920 143.0748 0001952  77.3584 282.7762 13.11420851222368
ONEWEB-0055             
1 45443U 20020V   24286.66759172  .00000507  00000+0  13938-2 0  9996
2 45443  87.8920 143.0802 0001767  80.7235 279.4092 13.11423339222335
ONEWEB-0093             
1 45444U 20020W   24286.64298603 -.00000480  00000+0 -13899-2 0  9990
2 45444  87.8921 143.0672 0001793  86.9062 273.2271 13.11416248222395
ONEWEB-0029             
1 45445U 20020X   24286.66165041  .00000391  00000+0  10678-2 0  9993
2 45445  87.8922 143.0771 0001624  87.5448 272.5866 13.11418754222379
ONEWEB-0068             
1 45446U 20020Y   24286.63705910 -.00000480  00000+0 -13890-2 0  9996
2 45446  87.8921 143.0673 0001641  85.4896 274.6419 13.11418733222311
ONEWEB-0046             
1 45447U 20020Z   24286.63451370 -.00000495  00000+0 -14315-2 0  9994
2 45447  87.8921 143.0796 0001331  83.8022 276.3258 13.11419073222326
ONEWEB-0063             
1 45448U 20020AA  24286.66335710  .00000482  00000+0  13241-2 0  9998
2 45448  87.8921 143.0745 0001398  75.9792 284.1492 13.11421093222412
ONEWEB-0019             
1 45449U 20020AB  24286.63790215 -.00000816  00000+0 -23371-2 0  9999
2 45449  87.8924 143.0868 0001680  74.5803 285.5510 13.11417411222251
